[{"OBJECT_NAME":"STARLINK-32721","OBJECT_ID":"2024-251G","EPOCH":"2025-11-01T10:24:43.748352","MEAN_MOTION":15.30217122,"ECCENTRICITY":0.00012283,"INCLINATION":53.1581,"RA_OF_ASC_NODE":210.9112,"ARG_OF_PERICENTER":85.7423,"MEAN_ANOMALY":274.3718,"EPHEMERIS_TYPE":0,"CLASSIFICATION_TYPE":"U","NORAD_CAT_ID":62438,"ELEMENT_SET_NO":999,"REV_AT_EPOCH":4825,"BSTAR":0.00087739215,"MEAN_MOTION_DOT":0.0002573,"MEAN_MOTION_DDOT":0},{"OBJECT_NAME":"STARLINK-32709","OBJECT_ID":"2024-251H","EPOCH":"2025-11-01T11:22:28.920576","MEAN_MOTION":15.30215845,"ECCENTRICITY":0.00018487,"INCLINATION":53.1605,"RA_OF_ASC_NODE":211.1659,"ARG_OF_PERICENTER":89.9823,"MEAN_ANOMALY":270.1389,"EPHEMERIS_TYPE":0,"CLASSIFICATION_TYPE":"U","NORAD_CAT_ID":62439,"ELEMENT_SET_NO":999,"REV_AT_EPOCH":4831,"BSTAR":0.0010806173,"MEAN_MOTION_DOT":0.00031799,"MEAN_MOTION_DDOT":0},{"OBJECT_NAME":"STARLINK-32689","OBJECT_ID":"2024-251J","EPOCH":"2025-11-01T00:33:04.241664","MEAN_MOTION":15.3016837,"ECCENTRICITY":0.00014058,"INCLINATION":53.1592,"RA_OF_ASC_NODE":212.6141,"ARG_OF_PERICENTER":73.2122,"MEAN_ANOMALY":286.9033,"EPHEMERIS_TYPE":0,"CLASSIFICATION_TYPE":"U","NORAD_CAT_ID":62440,"ELEMENT_SET_NO":999,"REV_AT_EPOCH":4825,"BSTAR":0.0013185969,"MEAN_MOTION_DOT":0.0003886,"MEAN_MOTION_DDOT":0},{"OBJECT_NAME":"STARLINK-32724","OBJECT_ID":"2024-251K","EPOCH":"2025-11-01T10:27:45.963360","MEAN_MOTION":15.30235894,"ECCENTRICITY":0.00014206,"INCLINATION":53.1578,"RA_OF_ASC_NODE":210.9293,"ARG_OF_PERICENTER":77.3898,"MEAN_ANOMALY":282.7262,"EPHEMERIS_TYPE":0,"CLASSIFICATION_TYPE":"U","NORAD_CAT_ID":62441,"ELEMENT_SET_NO":999,"REV_AT_EPOCH":4815,"BSTAR":0.0013777578,"MEAN_MOTION_DOT":0.00040715,"MEAN_MOTION_DDOT":0},{"OBJECT_NAME":"STARLINK-32291","OBJECT_ID":"2024-251L","EPOCH":"2025-11-01T10:39:55.570752","MEAN_MOTION":15.30221462,"ECCENTRICITY":0.00012089,"INCLINATION":53.157,"RA_OF_ASC_NODE":210.9801,"ARG_OF_PERICENTER":95.1857,"MEAN_ANOMALY":264.9281,"EPHEMERIS_TYPE":0,"CLASSIFICATION_TYPE":"U","NORAD_CAT_ID":62442,"ELEMENT_SET_NO":999,"REV_AT_EPOCH":4800,"BSTAR":0.00066849605,"MEAN_MOTION_DOT":0.00019505,"MEAN_MOTION_DDOT":0},{"OBJECT_NAME":"STARLINK-32736","OBJECT_ID":"2024-251M","EPOCH":"2025-11-01T01:26:15.030816","MEAN_MOTION":15.30202191,"ECCENTRICITY":0.00019585,"INCLINATION":53.16,"RA_OF_ASC_NODE":212.8481,"ARG_OF_PERICENTER":88.7595,"MEAN_ANOMALY":271.363,"EPHEMERIS_TYPE":0,"CLASSIFICATION_TYPE":"U","NORAD_CAT_ID":62443,"ELEMENT_SET_NO":999,"REV_AT_EPOCH":4809,"BSTAR":0.0008920227,"MEAN_MOTION_DOT":0.00026155,"MEAN_MOTION_DDOT":0},{"OBJECT_NAME":"STARLINK-32737","OBJECT_ID":"2024-251N","EPOCH":"2025-11-01T10:19:24.440736","MEAN_MOTION":15.30218388,"ECCENTRICITY":0.00013763,"INCLINATION":53.1589,"RA_OF_ASC_NODE":208.7592,"ARG_OF_PERICENTER":88.3003,"MEAN_ANOMALY":271.8155,"EPHEMERIS_TYPE":0,"CLASSIFICATION_TYPE":"U","NORAD_CAT_ID":62444,"ELEMENT_SET_NO":999,"REV_AT_EPOCH":4834,"BSTAR":0.00094932732,"MEAN_MOTION_DOT":0.00027879,"MEAN_MOTION_DDOT":0},{"OBJECT_NAME":"STARLINK-32683","OBJECT_ID":"2024-251P","EPOCH":"2025-11-01T11:16:24.006720","MEAN_MOTION":15.30215137,"ECCENTRICITY":0.0001504,"INCLINATION":53.1588,"RA_OF_ASC_NODE":211.1315,"ARG_OF_PERICENTER":89.6616,"MEAN_ANOMALY":270.4557,"EPHEMERIS_TYPE":0,"CLASSIFICATION_TYPE":"U","NORAD_CAT_ID":62445,"ELEMENT_SET_NO":999,"REV_AT_EPOCH":4831,"BSTAR":0.00087491984,"MEAN_MOTION_DOT":0.00025655,"MEAN_MOTION_DDOT":0},{"OBJECT_NAME":"STARLINK-32726","OBJECT_ID":"2024-251Q","EPOCH":"2025-11-01T10:26:14.996256","MEAN_MOTION":15.30212944,"ECCENTRICITY":0.0001052,"INCLINATION":53.1569,"RA_OF_ASC_NODE":210.919,"ARG_OF_PERICENTER":99.4039,"MEAN_ANOMALY":260.7081,"EPHEMERIS_TYPE":0,"CLASSIFICATION_TYPE":"U","NORAD_CAT_ID":62446,"ELEMENT_SET_NO":999,"REV_AT_EPOCH":4800,"BSTAR":0.00084661207,"MEAN_MOTION_DOT":0.00024809,"MEAN_MOTION_DDOT":0},{"OBJECT_NAME":"STARLINK-32730","OBJECT_ID":"2024-251R","EPOCH":"2025-11-01T00:51:17.671680","MEAN_MOTION":15.30197394,"ECCENTRICITY":0.00011443,"INCLINATION":53.158,"RA_OF_ASC_NODE":212.6901,"ARG_OF_PERICENTER":92.2119,"MEAN_ANOMALY":267.9013,"EPHEMERIS_TYPE":0,"CLASSIFICATION_TYPE":"U","NORAD_CAT_ID":62447,"ELEMENT_SET_NO":999,"REV_AT_EPOCH":4825,"BSTAR":0.00068575785,"MEAN_MOTION_DOT":0.00020004,"MEAN_MOTION_DDOT":0},{"OBJECT_NAME":"STARLINK-32719","OBJECT_ID":"2024-251S","EPOCH":"2025-11-01T00:46:52.075488","MEAN_MOTION":15.30207172,"ECCENTRICITY":0.0001329,"INCLINATION":53.1588,"RA_OF_ASC_NODE":213.2374,"ARG_OF_PERICENTER":93.5982,"MEAN_ANOMALY":266.5171,"EPHEMERIS_TYPE":0,"CLASSIFICATION_TYPE":"U","NORAD_CAT_ID":62448,"ELEMENT_SET_NO":999,"REV_AT_EPOCH":4807,"BSTAR":0.0011286136,"MEAN_MOTION_DOT":0.00033224,"MEAN_MOTION_DDOT":0},{"OBJECT_NAME":"STARLINK-32723","OBJECT_ID":"2024-251T","EPOCH":"2025-11-01T13:37:23.660544","MEAN_MOTION":15.30171141,"ECCENTRICITY":0.00011632,"INCLINATION":53.1578,"RA_OF_ASC_NODE":210.3261,"ARG_OF_PERICENTER":87.2271,"MEAN_ANOMALY":272.8863,"EPHEMERIS_TYPE":0,"CLASSIFICATION_TYPE":"U","NORAD_CAT_ID":62449,"ELEMENT_SET_NO":999,"REV_AT_EPOCH":4817,"BSTAR":0.00093595107,"MEAN_MOTION_DOT":0.00027439,"MEAN_MOTION_DDOT":0},{"OBJECT_NAME":"STARLINK-32722","OBJECT_ID":"2024-251U","EPOCH":"2025-11-01T00:57:22.439520","MEAN_MOTION":15.30209311,"ECCENTRICITY":0.00012458,"INCLINATION":53.1578,"RA_OF_ASC_NODE":212.7162,"ARG_OF_PERICENTER":107.1526,"MEAN_ANOMALY":252.9611,"EPHEMERIS_TYPE":0,"CLASSIFICATION_TYPE":"U","NORAD_CAT_ID":62450,"ELEMENT_SET_NO":999,"REV_AT_EPOCH":4788,"BSTAR":0.0016141271,"MEAN_MOTION_DOT":0.00047768,"MEAN_MOTION_DDOT":0},{"OBJECT_NAME":"STARLINK-32720","OBJECT_ID":"2024-251V","EPOCH":"2025-11-01T11:05:45.792384","MEAN_MOTION":15.30214213,"ECCENTRICITY":0.0001406,"INCLINATION":53.1603,"RA_OF_ASC_NODE":211.0915,"ARG_OF_PERICENTER":84.6671,"MEAN_ANOMALY":275.449,"EPHEMERIS_TYPE":0,"CLASSIFICATION_TYPE":"U","NORAD_CAT_ID":62451,"ELEMENT_SET_NO":999,"REV_AT_EPOCH":4794,"BSTAR":0.0011668361,"MEAN_MOTION_DOT":0.00034374,"MEAN_MOTION_DDOT":0},{"OBJECT_NAME":"STARLINK-32656","OBJECT_ID":"2024-251W","EPOCH":"2025-11-01T11:27:02.274624","MEAN_MOTION":15.30216469,"ECCENTRICITY":0.00016031,"INCLINATION":53.1599,"RA_OF_ASC_NODE":211.1789,"ARG_OF_PERICENTER":80.7635,"MEAN_ANOMALY":279.3548,"EPHEMERIS_TYPE":0,"CLASSIFICATION_TYPE":"U","NORAD_CAT_ID":62452,"ELEMENT_SET_NO":999,"REV_AT_EPOCH":4815,"BSTAR":0.0016799811,"MEAN_MOTION_DOT":0.00049756,"MEAN_MOTION_DDOT":0},{"OBJECT_NAME":"STARLINK-32690","OBJECT_ID":"2024-251X","EPOCH":"2025-11-01T00:52:49.018080","MEAN_MOTION":15.30200182,"ECCENTRICITY":0.00015568,"INCLINATION":53.1581,"RA_OF_ASC_NODE":212.7007,"ARG_OF_PERICENTER":90.1976,"MEAN_ANOMALY":269.9203,"EPHEMERIS_TYPE":0,"CLASSIFICATION_TYPE":"U","NORAD_CAT_ID":62453,"ELEMENT_SET_NO":999,"REV_AT_EPOCH":4787,"BSTAR":0.0010679973,"MEAN_MOTION_DOT":0.00031406,"MEAN_MOTION_DDOT":0}]
