STARLINK-32721          
1 62438U 24251G   25305.43383968  .00025730  00000+0  87739-3 0  9999
2 62438  53.1581 210.9112 0001228  85.7423 274.3718 15.30217122 48251
STARLINK-32709          
1 62439U 24251H   25305.47394584  .00031799  00000+0  10806-2 0  9992
2 62439  53.1605 211.1659 0001848  89.9823 270.1389 15.30215845 48311
STARLINK-32689          
1 62440U 24251J   25305.02296576  .00038860  00000+0  13186-2 0  9997
2 62440  53.1592 212.6141 0001405  73.2122 286.9033 15.30168370 48251
STARLINK-32724          
1 62441U 24251K   25305.43594865  .00040715  00000+0  13778-2 0  9994
2 62441  53.1578 210.9293 0001420  77.3898 282.7262 15.30235894 48150
STARLINK-32291          
1 62442U 24251L   25305.44439318  .00019505  00000+0  66850-3 0  9990
2 62442  53.1570 210.9801 0001208  95.1857 264.9281 15.30221462 48008
STARLINK-32736          
1 62443U 24251M   25305.05989619  .00026155  00000+0  89202-3 0  9997
2 62443  53.1600 212.8481 0001958  88.7595 271.3630 15.30202191 48094
STARLINK-32737          
1 62444U 24251N   25305.43014399  .00027879  00000+0  94933-3 0  9995
2 62444  53.1589 208.7592 0001376  88.3003 271.8155 15.30218388 48342
STARLINK-32683          
1 62445U 24251P   25305.46972230  .00025655  00000+0  87492-3 0  9998
2 62445  53.1588 211.1315 0001504  89.6616 270.4557 15.30215137 48317
STARLINK-32726          
1 62446U 24251Q   25305.43489579  .00024809  00000+0  84661-3 0  9990
2 62446  53.1569 210.9190 0001052  99.4039 260.7081 15.30212944 48004
STARLINK-32730          
1 62447U 24251R   25305.03562120  .00020004  00000+0  68576-3 0  9991
2 62447  53.1580 212.6901 0001144  92.2119 267.9013 15.30197394 48251
STARLINK-32719          
1 62448U 24251S   25305.03254717  .00033224  00000+0  11286-2 0  9995
2 62448  53.1588 213.2374 0001329  93.5982 266.5171 15.30207172 48074
STARLINK-32723          
1 62449U 24251T   25305.56763496  .00027439  00000+0  93595-3 0  9998
2 62449  53.1578 210.3261 0001163  87.2271 272.8863 15.30171141 48179
STARLINK-32722          
1 62450U 24251U   25305.03984305  .00047768  00000+0  16141-2 0  9994
2 62450  53.1578 212.7162 0001245 107.1526 252.9611 15.30209311 47881
STARLINK-32720          
1 62451U 24251V   25305.46233556  .00034374  00000+0  11668-2 0  9995
2 62451  53.1603 211.0915 0001406  84.6671 275.4490 15.30214213 47947
STARLINK-32656          
1 62452U 24251W   25305.47710966  .00049756  00000+0  16800-2 0  9995
2 62452  53.1599 211.1789 0001603  80.7635 279.3548 15.30216469 48154
STARLINK-32690          
1 62453U 24251X   25305.03667845  .00031406  00000+0  10680-2 0  9998
2 62453  53.1581 212.7007 0001556  90.1976 269.9203 15.30200182 47872
